OBJECT_NAME,OBJECT_ID,EPOCH,MEAN_MOTION,ECCENTRICITY,INCLINATION,RA_OF_ASC_NODE,ARG_OF_PERICENTER,MEAN_ANOMALY,EPHEMERIS_TYPE,CLASSIFICATION_TYPE,NORAD_CAT_ID,ELEMENT_SET_NO,REV_AT_EPOCH,BSTAR,MEAN_MOTION_DOT,MEAN_MOTION_DDOT
SIRION PATHFINDER-2,2018-099B,2026-06-09T02:54:36.064800,15.14478540,.000778,97.4257,209.3708,337.8238,22.2656,0,U,43759,999,41140,.20381E-3,.3687E-4,0
CORVUS BC4,2018-099K,2026-06-09T02:48:19.796256,15.12431471,.0009111,97.4073,203.3337,39.5268,320.6626,0,U,43767,999,41118,.22298E-3,.3814E-4,0
M2 PATHFINDER,2020-037E,2026-06-09T01:35:59.108640,15.04641993,.0011716,97.8162,351.2072,173.3077,186.8307,0,U,45727,999,32427,.16402E-3,.2244E-4,0
NETSAT-4,2020-068U,2026-06-08T18:18:45.173376,15.43586088,.0004934,97.8612,167.3284,12.8188,347.3184,0,U,46504,999,31447,.4154E-3,.18603E-3,0
NETSAT-3,2020-068V,2026-06-08T18:18:25.350624,15.42389149,.0005393,97.8660,165.5554,31.0112,329.1451,0,U,46505,999,31438,.44273E-3,.19055E-3,0
NETSAT-1,2020-068W,2026-06-08T23:37:40.963296,15.34449215,.0005968,97.8749,160.2219,55.5547,304.6258,0,U,46506,999,31404,.37418E-3,.1241E-3,0
NETSAT-2,2020-068X,2026-06-09T00:12:32.404032,15.45645345,.0004567,97.8623,167.4592,48.2139,311.9499,0,U,46507,999,31447,.40371E-3,.19387E-3,0
GREENCUBE (IO-117),2022-080E,2026-06-01T11:09:37.753056,6.42583280,.00088692,70.1435,303.7143,293.3663,66.6064,0,U,53109,999,9105,0,-.3E-7,0
SITRO-AIS 5 (KATYS),2023-091L,2026-06-09T03:40:29.445312,15.29270412,.0012729,97.5063,223.9770,128.2698,231.9689,0,U,57176,999,16311,.37671E-3,.10649E-3,0
SITRO-AIS 6 (CHIRKIN),2023-091AC,2026-06-09T02:43:36.374016,15.25779535,.0012976,97.5071,223.0990,131.4082,228.8273,0,U,57192,999,16305,.35016E-3,.8893E-4,0
SITRO-AIS 8 (ANOKHIN),2023-091AD,2026-06-09T02:51:02.568672,15.31911676,.0011842,97.5060,225.4984,124.5216,235.7145,0,U,57193,999,16321,.40166E-3,.12329E-3,0
SITRO-AIS 7 (FARTUSHNIY),2023-091AE,2026-06-09T02:45:46.501056,15.25470044,.0012796,97.5069,222.9295,132.2572,227.9754,0,U,57194,999,16304,.33765E-3,.8492E-4,0
SITRO-AIS 10 (BURDAEV),2023-091AK,2026-06-09T04:25:02.333856,15.38304859,.0007904,97.5083,230.5368,103.8223,256.3902,0,U,57199,999,16353,.47365E-3,.17834E-3,0
SITRO-AIS 9 (SHCHUKIN),2023-091AM,2026-06-09T03:25:43.701024,15.37825123,.000815,97.5081,230.2309,103.9347,256.2804,0,U,57201,999,16351,.48657E-3,.18041E-3,0
SITRO-AIS 12 (SMIRENNIY),2023-091AQ,2026-06-09T03:14:24.501120,15.38114482,.0007745,97.5093,230.6848,99.0244,261.1877,0,U,57204,999,16353,.46388E-3,.17355E-3,0
SITRO-AIS 11 (SHEFFER),2023-091AU,2026-06-09T03:36:54.653184,15.38532764,.0007644,97.5092,230.9424,98.9589,261.2521,0,U,57208,999,16355,.48294E-3,.18321E-3,0
SITRO-AIS 25,2024-039R,2026-06-09T04:51:13.148064,14.93470916,.0144494,95.3912,229.6054,356.8621,3.1683,0,U,59066,999,12353,.23621E-3,.3016E-4,0
SITRO-AIS 26,2024-039S,2026-06-09T04:51:37.841184,14.93267681,.0144848,95.3912,229.5050,357.4355,2.6110,0,U,59067,999,12352,.23565E-3,.2995E-4,0
SITRO-AIS 27,2024-039T,2026-06-09T04:11:59.911872,14.93684630,.0143926,95.3913,229.7541,356.1267,3.8832,0,U,59068,999,12354,.19596E-3,.2506E-4,0
SITRO-AIS 28,2024-039U,2026-06-09T05:16:14.500128,14.93721161,.0143779,95.3916,229.8316,355.8740,4.1288,0,U,59071,999,12355,.2127E-3,.2725E-4,0
GRBBETA,2024-128C,2026-06-08T17:23:39.175008,15.06584103,.0041799,61.9897,245.9555,132.8784,227.5832,0,U,60237,999,10499,.29272E-3,.4223E-4,0
OOV-CUBE (TUBSAT-30),2024-128F,2026-06-08T19:18:32.916096,15.02739260,.0045688,61.9950,254.8019,131.8693,228.6311,0,U,60240,999,10485,.20896E-3,.2654E-4,0
ROBUSTA-3A (MEDITERRANEE),2024-128J,2026-06-08T19:12:05.667840,15.11578086,.0042331,61.9858,237.9014,126.3779,234.1234,0,U,60243,999,10515,.45182E-3,.7653E-4,0
LASARSAT,2024-247Q,2026-06-08T21:36:08.997696,15.45852185,.0008365,44.9750,308.7653,285.6781,74.3185,0,U,62391,999,8203,.6942E-3,.34289E-3,0
CROCUBE,2024-247T,2026-06-09T02:26:10.926240,15.47679715,.0008206,44.9725,305.0974,290.1474,69.8533,0,U,62394,999,8209,.61925E-3,.3255E-3,0
FORESAIL-1 PRIME,2025-276DS,2026-06-08T04:01:00.773184,15.18619338,.0003714,97.4199,232.6039,122.1307,238.0288,0,U,66778,999,2903,.21751E-3,.4435E-4,0
KNACKSAT-2,1998-067XZ,2026-06-08T18:20:39.945408,15.59209268,.001022,51.6310,336.8215,178.4517,181.6510,0,U,67683,999,1896,.61524E-3,.49104E-3,0
